[{"OBJECT_NAME":"STARLINK-34732","OBJECT_ID":"2025-158Z","EPOCH":"2026-03-09T12:50:54.515616","MEAN_MOTION":15.05652348,"ECCENTRICITY":0.00028479,"INCLINATION":97.6019,"RA_OF_ASC_NODE":293.9519,"ARG_OF_PERICENTER":87.1761,"MEAN_ANOMALY":272.9791,"EPHEMERIS_TYPE":0,"CLASSIFICATION_TYPE":"U","NORAD_CAT_ID":64955,"ELEMENT_SET_NO":999,"REV_AT_EPOCH":3533,"BSTAR":0.00041751075,"MEAN_MOTION_DOT":5.969e-5,"MEAN_MOTION_DDOT":0},{"OBJECT_NAME":"OBJECT F","OBJECT_ID":"2025-292F","EPOCH":"2026-03-09T22:41:00.950496","MEAN_MOTION":15.06065121,"ECCENTRICITY":0.00151037,"INCLINATION":97.6416,"RA_OF_ASC_NODE":145.7425,"ARG_OF_PERICENTER":346.7214,"MEAN_ANOMALY":13.3613,"EPHEMERIS_TYPE":0,"CLASSIFICATION_TYPE":"U","NORAD_CAT_ID":66998,"ELEMENT_SET_NO":999,"REV_AT_EPOCH":1351,"BSTAR":0.00047210602,"MEAN_MOTION_DOT":6.85e-5,"MEAN_MOTION_DDOT":0}]
